{
"type": "FeatureCollection",
"name": "1965",
"crs": { "type": "name", "properties": { "name": "urn:ogc:def:crs:OGC:1.3:CRS84" } },
"features": [
{ "type": "Feature", "properties": { "name": "Guyanese Creole English", "year": "contemporary", "map_name_full": "Map 13 Northern South America: Contemporary", "number_legend": "NA", "id": "1965" }, "geometry": { "type": "Polygon", "coordinates": [ [ [ -57.517037169082016, 6.315075983222799 ], [ -57.504191830949317, 6.329039534267138 ], [ -57.494261271690348, 6.33482182368722 ], [ -57.490632657355874, 6.338920939261019 ], [ -57.486070432929758, 6.339505005085455 ], [ -57.466370227832037, 6.337906198326555 ], [ -57.445591347300727, 6.330366451194553 ], [ -57.428944809602839, 6.32275058111754 ], [ -57.408800535819161, 6.312764896912059 ], [ -57.377430792972554, 6.294338283130045 ], [ -57.36504404658902, 6.287483771003947 ], [ -57.330466189894118, 6.264391639286773 ], [ -57.289823670172197, 6.234738596601248 ], [ -57.207493730152791, 6.151377835849375 ], [ -57.186659817928856, 6.12118824601526 ], [ -57.167307094657772, 6.085109767569968 ], [ -57.158436653435274, 6.044378973214201 ], [ -57.155357469389813, 6.019666900721646 ], [ -57.151888385070009, 6.007802646940934 ], [ -57.146752166821749, 5.997589870398715 ], [ -57.144435935421811, 5.989022397909588 ], [ -57.143613225046956, 5.977984623710605 ], [ -57.158314582269632, 5.998928127395266 ], [ -57.16576087127163, 6.005682684431623 ], [ -57.147926024149598, 5.969916188794694 ], [ -57.141964525446433, 5.955741944206042 ], [ -57.141683996854567, 5.934178119666837 ], [ -57.140004035882171, 5.917914129729517 ], [ -57.137258975715056, 5.882091552345726 ], [ -57.153675911212851, 5.847113347855601 ], [ -57.158192512002309, 5.828599350931056 ], [ -57.165435350558745, 5.811346747158857 ], [ -57.170020576347703, 5.799621837265268 ], [ -57.170614668177706, 5.779035643909348 ], [ -57.180675733782834, 5.754928246729627 ], [ -57.183054672081177, 5.731410052105453 ], [ -57.16814122711147, 5.706959631771489 ], [ -57.236515937108457, 5.724316882538996 ], [ -57.295110164889401, 5.785947129925799 ], [ -57.350356151519186, 5.839243552192194 ], [ -57.390535050722974, 5.910852628029527 ], [ -57.409264276711532, 5.974127359994027 ], [ -57.516512640990982, 6.054771217684862 ], [ -57.592371238976156, 6.114595988129146 ], [ -57.660382396286053, 6.148407032925736 ], [ -57.725777740336994, 6.151007794065563 ], [ -57.775478201240766, 6.104192159283603 ], [ -57.869647496530376, 6.059973636396333 ], [ -57.901037261028037, 6.052169990430103 ], [ -57.982127487327773, 6.018352892370356 ], [ -58.112918174531323, 6.020954281986477 ], [ -58.115533988688625, 5.948110669770702 ], [ -58.144307939927295, 5.823213518672162 ], [ -58.234553513531793, 5.738631935619425 ], [ -58.303872578369507, 5.776369895976035 ], [ -58.31172001904477, 5.867451132753033 ], [ -58.264635372298272, 5.953314106278436 ], [ -58.212319097237192, 6.036562361463054 ], [ -58.186160959257506, 6.138003863033683 ], [ -58.264635372298272, 6.161410709560505 ], [ -58.526216746705344, 6.216022663260637 ], [ -58.536680001537903, 6.130201351841247 ], [ -58.549759070527756, 5.911685237986897 ], [ -58.615154413680365, 5.659243953656333 ], [ -58.759024169873747, 5.331166614653621 ], [ -58.871504160671158, 5.226977891604613 ], [ -58.947362759554636, 5.159245904566686 ], [ -59.075537633499195, 5.143614416031362 ], [ -59.133085535078223, 5.159245904566686 ], [ -59.167091114631511, 5.20874307301075 ], [ -59.09384832900701, 5.331166614653621 ], [ -58.952594386970915, 5.461377620198395 ], [ -58.811340444934828, 5.669656116429628 ], [ -58.771684708382821, 5.824254443642134 ], [ -58.78842591593525, 5.927504578217809 ], [ -58.790100036959984, 6.034065099145649 ], [ -58.795122399135877, 6.137275633476242 ], [ -58.769487424706298, 6.309629940096023 ], [ -58.745945100883908, 6.587750807068391 ], [ -58.808724630777526, 6.751431745578234 ], [ -58.939515317981069, 6.86311878661091 ], [ -59.031068799113378, 6.972183167247323 ], [ -59.078153446758165, 7.086413858490823 ], [ -59.046763682260512, 7.203211420679841 ], [ -58.976136710793305, 7.332951185852943 ], [ -58.923690893278383, 7.464608999395809 ], [ -58.90432152781834, 7.426864027723292 ], [ -58.871108733961179, 7.477713703608867 ], [ -58.825165501886055, 7.539579134769927 ], [ -58.798422426807427, 7.571528152473233 ], [ -58.754053350333919, 7.61211448800506 ], [ -58.73762950230001, 7.588334205871784 ], [ -58.733918042635075, 7.594694042926608 ], [ -58.743901509071009, 7.619352057740608 ], [ -58.74200435971742, 7.630278444074529 ], [ -58.728217168552042, 7.629295071985921 ], [ -58.703433725146567, 7.620962695952954 ], [ -58.682377268785736, 7.603534104056556 ], [ -58.663163233716425, 7.585201298359189 ], [ -58.646717044581401, 7.56505708506855 ], [ -58.630292467115495, 7.540351086771095 ], [ -58.609314612443683, 7.506494794354646 ], [ -58.58405514188771, 7.475775458242809 ], [ -58.568180263307077, 7.453340612971022 ], [ -58.48973548119595, 7.376125393080829 ], [ -58.47158769426661, 7.345404363820503 ], [ -58.464222786341161, 7.312201238782462 ], [ -58.474191860867919, 7.279974677262611 ], [ -58.4673559241009, 7.28742096612405 ], [ -58.472523567214452, 7.244452216219594 ], [ -58.4673559241009, 7.116115626708297 ], [ -58.485015429062635, 7.010809637248152 ], [ -58.497385219745162, 6.994818426971836 ], [ -58.519602017382105, 6.977647203230632 ], [ -58.535633917881114, 6.965277411267145 ], [ -58.55068925713983, 6.947088933879415 ], [ -58.561594204614437, 6.927232163629816 ], [ -58.568186001745119, 6.906805730694224 ], [ -58.574045377271823, 6.868394273269967 ], [ -58.597727017218382, 6.808294988844826 ], [ -58.599842902750389, 6.787258204756116 ], [ -58.598921900513773, 6.758690530142421 ], [ -58.597727017218382, 6.721625066750736 ], [ -58.599842902750389, 6.711330470716057 ], [ -58.609201626838832, 6.698919988561003 ], [ -58.611398891650744, 6.687811590569693 ], [ -58.611398891650744, 6.509711004915145 ], [ -58.617014126642793, 6.488145249427606 ], [ -58.619943813957001, 6.476874091259627 ], [ -58.686431443816389, 6.382473048602443 ], [ -58.682240363739801, 6.379828191601758 ], [ -58.67959550704937, 6.376206772729534 ], [ -58.648833788004502, 6.404201564990138 ], [ -58.638661262133873, 6.410345770305979 ], [ -58.635609503654031, 6.414374090825421 ], [ -58.632923956874507, 6.420070705394694 ], [ -58.628895637154336, 6.42332591444073 ], [ -58.615386523078413, 6.417385158020934 ], [ -58.606800910683056, 6.416327216314168 ], [ -58.602149183511926, 6.41656374385447 ], [ -58.601999478371503, 6.416571355804338 ], [ -58.590240038127298, 6.417222398038699 ], [ -58.597727017218382, 6.423407294355533 ], [ -58.581166144662618, 6.463446356426169 ], [ -58.577219205120677, 6.594712632124267 ], [ -58.56700598916094, 6.636704819576197 ], [ -58.461537238663297, 6.821844793943911 ], [ -58.434885220415133, 6.857814846440331 ], [ -58.398426887098317, 6.88336823108352 ], [ -58.354400193613863, 6.894354558900904 ], [ -58.312163865846856, 6.892157293724654 ], [ -58.273833788431013, 6.880519924259047 ], [ -58.214100715160399, 6.849188544147222 ], [ -58.194488085023124, 6.830959377186034 ], [ -58.189564582444241, 6.828111070173564 ], [ -58.186512824862724, 6.824530341258881 ], [ -58.178212043091122, 6.817572333141285 ], [ -58.173695442301664, 6.815375067177122 ], [ -58.169667120784872, 6.8134219424398 ], [ -58.165679491153817, 6.817857163738487 ], [ -58.162220831782882, 6.829535223123774 ], [ -58.153716601362376, 6.832220770097013 ], [ -58.067863405018279, 6.821702860615956 ], [ -58.00567454078017, 6.791757881775897 ], [ -57.985813017122048, 6.775223290912668 ], [ -57.956054764758562, 6.752912016296578 ], [ -57.91859667480248, 6.716302682013335 ], [ -57.891891302016319, 6.696441843190059 ], [ -57.838075397386234, 6.645302220610046 ], [ -57.806138348674772, 6.61317800642741 ], [ -57.79698615266004, 6.598146821667391 ], [ -57.778857437862499, 6.590347242362219 ], [ -57.756981311924008, 6.567700740026923 ], [ -57.699625453084735, 6.521614996335785 ], [ -57.667938586078208, 6.495933437171112 ], [ -57.646819243155903, 6.477809402715796 ], [ -57.633252592884347, 6.463473072107485 ], [ -57.618175110153885, 6.448377075344148 ], [ -57.59857774688485, 6.427246229130755 ], [ -57.577992316753331, 6.378159897663655 ], [ -57.54762201883058, 6.307144584373483 ], [ -57.536673478810201, 6.293162901205754 ], [ -57.533522449304932, 6.273656377935931 ], [ -57.528912724661552, 6.26570914635205 ], [ -57.520427341794012, 6.277992548669145 ], [ -57.518692121855231, 6.287130867127209 ], [ -57.517558627629718, 6.294750402772564 ], [ -57.517041976865414, 6.298223379419193 ], [ -57.517037169082016, 6.315075983222799 ] ] ] } }
]
}
