{
"type": "FeatureCollection",
"name": "208_fixed",
"crs": { "type": "name", "properties": { "name": "urn:ogc:def:crs:OGC:1.3:CRS84" } },
"features": [
{ "type": "Feature", "properties": { "name": "Amerakaéri", "year": "contemporary", "map_name_full": "Map 17 Western Brazil: Contemporary", "number_legend": "54b", "id": "208" }, "geometry": { "type": "Polygon", "coordinates": [ [ [ -70.258162322393474, -12.831655828524694 ], [ -70.248787246271903, -12.728472568673316 ], [ -70.236733576331105, -12.661838266538743 ], [ -70.218812715520627, -12.662649480195075 ], [ -70.190286768470642, -12.611261918902821 ], [ -70.134332027251361, -12.560399490777584 ], [ -70.095931713258395, -12.523450996388739 ], [ -70.048754186101419, -12.506313664971556 ], [ -69.963724920942653, -12.512740297687328 ], [ -69.924776031856794, -12.53201923481482 ], [ -69.879141373776733, -12.55414137769365 ], [ -69.792569239541066, -12.588441997370499 ], [ -69.659711013235793, -12.609354759585484 ], [ -69.583424676139884, -12.599316846708767 ], [ -69.52513848695807, -12.568364141951362 ], [ -69.467709446864163, -12.539917828058911 ], [ -69.382851611702662, -12.510631576169668 ], [ -69.305708125518819, -12.505610742220263 ], [ -69.243993336392123, -12.520672951159453 ], [ -69.178849948218826, -12.577566687076144 ], [ -69.198564394308733, -12.621901597898749 ], [ -69.23713613740064, -12.695497303385597 ], [ -69.298850926527365, -12.749008087393989 ], [ -69.386623071642035, -12.806586437135758 ], [ -69.507309769939553, -12.830122234212842 ], [ -69.57862463711534, -12.850981668033553 ], [ -69.665299630247659, -12.857934427224878 ], [ -69.722900099440508, -12.862747764302517 ], [ -69.794214966616295, -12.886278300345099 ], [ -69.857301195720979, -12.923174006928296 ], [ -69.914353089820935, -12.95685663142512 ], [ -69.970307831938527, -12.996414530742568 ], [ -70.101417472271891, -13.081923553954432 ], [ -70.176023795394798, -13.119858697803949 ], [ -70.205098318435986, -13.118255923339342 ], [ -70.23088138553004, -13.116653137551149 ], [ -70.25008154252653, -13.095815975513412 ], [ -70.259955908571214, -13.063220982384959 ], [ -70.26619810205456, -13.033980764268478 ], [ -70.270215992334272, -12.936102090014382 ], [ -70.258162322393474, -12.831655828524694 ] ] ] } }
]
}
