{
  "type": "FeatureCollection",
  "features": [
    {
      "type": "Feature",
      "geometry": {
        "type": "MultiPolygon",
        "coordinates": [
          [
            [
              [
                140.52466881600003,
                9.76447174700007
              ],
              [
                140.51539147200003,
                9.761175848000041
              ],
              [
                140.51417076900006,
                9.767808335000039
              ],
              [
                140.521739129,
                9.774725653000072
              ],
              [
                140.5312606130001,
                9.775580145000044
              ],
              [
                140.53288821700005,
                9.771918036000041
              ],
              [
                140.52466881600003,
                9.76447174700007
              ]
            ]
          ]
        ]
      },
      "properties": {
        "title": "ulit1238: Ulithian",
        "fill": "#0000ff",
        "family": "Austronesian",
        "cldf:languageReference": "ulit1238",
        "fill-opacity": 0.3,
        "Macroarea": "None",
        "ISO639P3code": "None",
        "Feature_IDs": "['6103']",
        "Glottolog_Languoid_Level": "language",
        "Family": "Austronesian",
        "Speaker_Area": "languages",
        "Maps": "['Map 28 Micronesia [2]']",
        "stroke": "#F2F3F4"
      }
    },
    {
      "type": "Feature",
      "geometry": {
        "type": "MultiPolygon",
        "coordinates": [
          [
            [
              [
                140.50367217961886,
                9.757211757302434
              ],
              [
                140.50373683333723,
                9.757309370335786
              ],
              [
                140.51463916860064,
                9.772155103460443
              ],
              [
                140.51471747097622,
                9.772251146505177
              ],
              [
                140.51483941093366,
                9.772273195888301
              ],
              [
                140.52916580302656,
                9.774121762609967
              ],
              [
                140.52928622134908,
                9.7741312488808
              ],
              [
                140.52935982674174,
                9.77403547410389
              ],
              [
                140.53556820552188,
                9.765067815865873
              ],
              [
                140.5356279088998,
                9.764972101997117
              ],
              [
                140.53552429814016,
                9.764927487554266
              ],
              [
                140.52963501142867,
                9.762719005037447
              ],
              [
                140.5291552104803,
                9.76250981995618
              ],
              [
                140.5286999067953,
                9.762251622545817
              ],
              [
                140.52827408990743,
                9.761947242312747
              ],
              [
                140.5278824262136,
                9.761600014866785
              ],
              [
                140.52752920783638,
                9.761213745367234
              ],
              [
                140.52721830558787,
                9.760792666823313
              ],
              [
                140.51995427627872,
                9.749792851012336
              ],
              [
                140.51988236683707,
                9.74969491105173
              ],
              [
                140.5197620935296,
                9.749677661843005
              ],
              [
                140.50989477081797,
                9.7487597713582
              ],
              [
                140.50977987720927,
                9.748754531864723
              ],
              [
                140.50970821530004,
                9.74884449054615
              ],
              [
                140.50373605617722,
                9.757113633946966
              ],
              [
                140.50367217961886,
                9.757211757302434
              ]
            ]
          ],
          [
            [
              [
                140.33018188582201,
                8.160295170395175
              ],
              [
                140.33029995210478,
                8.160291743644219
              ],
              [
                140.34441409683822,
                8.159171573427278
              ],
              [
                140.34498387027904,
                8.159158935594457
              ],
              [
                140.34555138060787,
                8.159211218625819
              ],
              [
                140.3542741629514,
                8.160519635977344
              ],
              [
                140.35438757995004,
                8.160531329781326
              ],
              [
                140.35449433965684,
                8.160491298223166
              ],
              [
                140.37720176085358,
                8.150759546281703
              ],
              [
                140.3776591224894,
                8.150589440367112
              ],
              [
                140.40175194615216,
                8.142944602089502
              ],
              [
                140.40187046783672,
                8.142900152863046
              ],
              [
                140.4019412650583,
                8.14279522013742
              ],
              [
                140.4144525395602,
                8.122017567839665
              ],
              [
                140.4147001692735,
                8.121645105981083
              ],
              [
                140.41498009291064,
                8.121296263511807
              ],
              [
                140.4152900705416,
                8.120973831845713
              ],
              [
                140.41562762174635,
                8.120680391059206
              ],
              [
                140.4159900454629,
                8.120418289245642
              ],
              [
                140.42316624340455,
                8.115702502026844
              ],
              [
                140.4232623770259,
                8.115632453355502
              ],
              [
                140.42330441533454,
                8.115521182199931
              ],
              [
                140.4258147792112,
                8.10776187567213
              ],
              [
                140.42584434553993,
                8.107652098981733
              ],
              [
                140.42573442678994,
                8.107681132718486
              ],
              [
                140.38459550989566,
                8.120770788093937
              ],
              [
                140.38448166894193,
                8.120813256353587
              ],
              [
                140.38438502202027,
                8.120886895259055
              ],
              [
                140.35136428234534,
                8.148705737587944
              ],
              [
                140.3509583672758,
                8.149013756908472
              ],
              [
                140.3505232104895,
                8.149278863522614
              ],
              [
                140.3500633314021,
                8.149498304107887
              ],
              [
                140.349583506188,
                8.149669799616296
              ],
              [
                140.34908871817646,
                8.149791568943883
              ],
              [
                140.34858410609615,
                8.14986234742877
              ],
              [
                140.33170328790698,
                8.151358116129074
              ],
              [
                140.3315900365327,
                8.151373582536122
              ],
              [
                140.33156688551466,
                8.15148551606009
              ],
              [
                140.330194431852,
                8.160177722590246
              ],
              [
                140.33018188582201,
                8.160295170395175
              ]
            ],
            [
              [
                140.39121446615778,
                8.124022366815286
              ],
              [
                140.39165888340173,
                8.12382652808644
              ],
              [
                140.39212020375913,
                8.123674728803556
              ],
              [
                140.39259407495857,
                8.123568401098717
              ],
              [
                140.3930760263191,
                8.123508548107873
              ],
              [
                140.3935615109286,
                8.12349573450687
              ],
              [
                140.3940459485409,
                8.123530081184084
              ],
              [
                140.3945247687876,
                8.12361126409992
              ],
              [
                140.39499345429658,
                8.123738517343916
              ],
              [
                140.39544758331078,
                8.123910640360643
              ],
              [
                140.39588287140467,
                8.124126009276193
              ],
              [
                140.39629521190497,
                8.12438259221842
              ],
              [
                140.39668071463487,
                8.12467796848641
              ],
              [
                140.39703574261517,
                8.125009351388266
              ],
              [
                140.3973569463771,
                8.125373614531844
              ],
              [
                140.39764129556238,
                8.125767321320307
              ],
              [
                140.3978861075128,
                8.126186757374294
              ],
              [
                140.3980890725794,
                8.126627965574775
              ],
              [
                140.39824827591275,
                8.12708678339603
              ],
              [
                140.39836221552807,
                8.12755888217648
              ],
              [
                140.3984298164758,
                8.128039807956942
              ],
              [
                140.3984504409829,
                8.128525023500954
              ],
              [
                140.39842389446994,
                8.129009951100803
              ],
              [
                140.39835042738682,
                8.129490015765345
              ],
              [
                140.3982307328499,
                8.12996068838222
              ],
              [
                140.3980659401029,
                8.130417528447206
              ],
              [
                140.39785760386314,
                8.130856225957633
              ],
              [
                140.39760768965388,
                8.131272642074581
              ],
              [
                140.39731855526065,
                8.131662848170256
              ],
              [
                140.39699292848715,
                8.13202316289216
              ],
              [
                140.39663388142,
                8.132350186894369
              ],
              [
                140.39624480144562,
                8.132640834908246
              ],
              [
                140.3873396198797,
                8.138642152920042
              ],
              [
                140.38696043073165,
                8.138873879423755
              ],
              [
                140.38656216424533,
                8.13907102248951
              ],
              [
                140.38614796643253,
                8.139232024832324
              ],
              [
                140.38572110915086,
                8.139355614652303
              ],
              [
                140.38481175064032,
                8.139575620743564
              ],
              [
                140.38433744856266,
                8.139666378517253
              ],
              [
                140.38385660333324,
                8.13971095765722
              ],
              [
                140.38337370026554,
                8.13970894233025
              ],
              [
                140.38289324386838,
                8.139660351335271
              ],
              [
                140.38241971582818,
                8.139565637927983
              ],
              [
                140.3819575332038,
                8.139425685592906
              ],
              [
                140.38151100722433,
                8.139241799802257
              ],
              [
                140.38108430307395,
                8.139015695838529
              ],
              [
                140.38068140103934,
                8.13874948279438
              ],
              [
                140.38030605938158,
                8.138445643899063
              ],
              [
                140.37996177927914,
                8.138107013354919
              ],
              [
                140.37965177216904,
                8.137736749900002
              ],
              [
                140.37937892979056,
                8.137338307343443
              ],
              [
                140.37914579721127,
                8.136915402348393
              ],
              [
                140.3789545490866,
                8.13647197976308
              ],
              [
                140.3788069693747,
                8.136012175823343
              ],
              [
                140.37870443469578,
                8.135540279569932
              ],
              [
                140.37864790149104,
                8.13506069284042
              ],
              [
                140.3786378971009,
                8.134577889208972
              ],
              [
                140.3786745148461,
                8.134096372256934
              ],
              [
                140.37875741315713,
                8.133620633563543
              ],
              [
                140.37888581876044,
                8.133155110808566
              ],
              [
                140.37905853389148,
                8.13270414637773
              ],
              [
                140.37927394746737,
                8.132271946857042
              ],
              [
                140.37953005011516,
                8.131862543793849
              ],
              [
                140.38092943236603,
                8.129848798603591
              ],
              [
                140.38123469628712,
                8.129453261687118
              ],
              [
                140.38157791159662,
                8.129090165604602
              ],
              [
                140.38195565114532,
                8.12876313602313
              ],
              [
                140.38236414304498,
                8.128475438470605
              ],
              [
                140.38279930833218,
                8.128229945728085
              ],
              [
                140.39121446615778,
                8.124022366815286
              ]
            ]
          ],
          [
            [
              [
                139.80771792814548,
                9.93175722714713
              ],
              [
                139.80782665415956,
                9.93179105289507
              ],
              [
                139.81581831308054,
                9.93384605090332
              ],
              [
                139.815933403929,
                9.933869870636288
              ],
              [
                139.81604661343007,
                9.933838297040499
              ],
              [
                139.84849938546066,
                9.923098530756992
              ],
              [
                139.84860706425138,
                9.923057239689102
              ],
              [
                139.84869231945694,
                9.92297957873283
              ],
              [
                139.85816126336212,
                9.913510634827675
              ],
              [
                139.85823973511805,
                9.9134240294719
              ],
              [
                139.85815276828865,
                9.913345958512142
              ],
              [
                139.8545814921864,
                9.910444296679096
              ],
              [
                139.85448573294892,
                9.910373943708617
              ],
              [
                139.85437039237723,
                9.910402508100944
              ],
              [
                139.8216957990947,
                9.920204886085708
              ],
              [
                139.82157857424062,
                9.92024657168648
              ],
              [
                139.82147899410145,
                9.920321158224649
              ],
              [
                139.80780178433267,
                9.931680196846166
              ],
              [
                139.80771792814548,
                9.93175722714713
              ]
            ]
          ],
          [
            [
              [
                139.56252467750406,
                10.037547106448423
              ],
              [
                139.56260734348345,
                10.037633058575697
              ],
              [
                139.5859232736978,
                10.059550032977194
              ],
              [
                139.58602759810236,
                10.059637792406546
              ],
              [
                139.58615476293977,
                10.059686928980241
              ],
              [
                139.70766711146211,
                10.099096339311822
              ],
              [
                139.70779673058695,
                10.099130741701892
              ],
              [
                139.70793054796818,
                10.099121935426481
              ],
              [
                139.74669915002235,
                10.094451019516338
              ],
              [
                139.7468165423408,
                10.094431060009029
              ],
              [
                139.74689535047708,
                10.09434179290437
              ],
              [
                139.77495541746543,
                10.059266709168947
              ],
              [
                139.775023536024,
                10.059172768487867
              ],
              [
                139.77500846535497,
                10.059057712568858
              ],
              [
                139.7725025931791,
                10.045096424732057
              ],
              [
                139.77244094971252,
                10.04462507039687
              ],
              [
                139.77242434754382,
                10.044149992304066
              ],
              [
                139.77245293673988,
                10.04367548468122
              ],
              [
                139.77252645888314,
                10.04320583659944
              ],
              [
                139.77264424940748,
                10.042745293204474
              ],
              [
                139.77280524360512,
                10.042298017344866
              ],
              [
                139.7730079862507,
                10.041868051944006
              ],
              [
                139.7732506447548,
                10.041459283456161
              ],
              [
                139.77353102572891,
                10.041075406736855
              ],
              [
                139.77384659481135,
                10.040719891645084
              ],
              [
                139.77419449957537,
                10.040395951679294
              ],
              [
                139.77457159531224,
                10.040106514930583
              ],
              [
                139.7749744734562,
                10.039854197615712
              ],
              [
                139.77539949239454,
                10.039641280429137
              ],
              [
                139.77584281038398,
                10.039469687927824
              ],
              [
                139.81393896062178,
                10.026770971181898
              ],
              [
                139.81404454870068,
                10.02673004142947
              ],
              [
                139.81398740972568,
                10.026632270142494
              ],
              [
                139.7948425108316,
                9.997214498671074
              ],
              [
                139.79477425885008,
                9.99712000221969
              ],
              [
                139.7946675893059,
                9.99716700775862
              ],
              [
                139.7480916727541,
                10.020454966034515
              ],
              [
                139.7476395327458,
                10.020653761571278
              ],
              [
                139.74716998515035,
                10.020806978111358
              ],
              [
                139.74668761181795,
                10.02091312056621
              ],
              [
                139.7461971197524,
                10.020971153196687
              ],
              [
                139.7457032951803,
                10.020980509719795
              ],
              [
                139.74521095684676,
                10.02094109883449
              ],
              [
                139.74472490899424,
                10.020853305112583
              ],
              [
                139.74424989448258,
                10.020717985246105
              ],
              [
                139.7437905485082,
                10.020536459687676
              ],
              [
                139.74335135337375,
                10.020310499765532
              ],
              [
                139.74293659474978,
                10.020042310398873
              ],
              [
                139.74255031985513,
                10.019734508582252
              ],
              [
                139.74219629796414,
                10.0193900978489
              ],
              [
                139.741877983626,
                10.019012438962235
              ],
              [
                139.74159848295523,
                10.018605217121488
              ],
              [
                139.6737037663328,
                9.908386521305843
              ],
              [
                139.67347023737958,
                9.907962782853422
              ],
              [
                139.67327875709253,
                9.907518457130841
              ],
              [
                139.67313111841693,
                9.90705770462729
              ],
              [
                139.67302870378253,
                9.906584839645797
              ],
              [
                139.6729724721592,
                9.90610428990581
              ],
              [
                139.67296295007745,
                9.905620555083804
              ],
              [
                139.67300022669826,
                9.905138164680082
              ],
              [
                139.67308395297826,
                9.904661635606358
              ],
              [
                139.67321334493784,
                9.904195429891184
              ],
              [
                139.6733871910022,
                9.903743912899289
              ],
              [
                139.67360386334602,
                9.903311312456049
              ],
              [
                139.6738613331357,
                9.902901679259804
              ],
              [
                139.67415718952662,
                9.902518848952738
              ],
              [
                139.67448866223734,
                9.902166406205449
              ],
              [
                139.71194369787764,
                9.866017941575857
              ],
              [
                139.71202208650664,
                9.865934899512661
              ],
              [
                139.71202339910644,
                9.865820710902984
              ],
              [
                139.7101508265205,
                9.81245239220399
              ],
              [
                139.71014176591373,
                9.812340320567596
              ],
              [
                139.71007572005772,
                9.812249325561032
              ],
              [
                139.67495820575218,
                9.76823537429811
              ],
              [
                139.6748827230454,
                9.768149426167012
              ],
              [
                139.67477288727721,
                9.768181376509002
              ],
              [
                139.64209082664905,
                9.779386654438655
              ],
              [
                139.6419785474503,
                9.779431507457138
              ],
              [
                139.641955052248,
                9.779550109257972
              ],
              [
                139.63248691445148,
                9.844023619015172
              ],
              [
                139.63239216912643,
                9.84450387077244
              ],
              [
                139.63225091677165,
                9.844972556380549
              ],
              [
                139.63206451125382,
                9.84542518361117
              ],
              [
                139.6318347392208,
                9.845857414151299
              ],
              [
                139.63156380297715,
                9.846265105184855
              ],
              [
                139.63125429937548,
                9.846644349100472
              ],
              [
                139.63090919492646,
                9.84699151094493
              ],
              [
                139.6305317973655,
                9.847303263263223
              ],
              [
                139.630125723949,
                9.847576617991349
              ],
              [
                139.6296948667839,
                9.84780895509611
              ],
              [
                139.60070889125774,
                9.861653003108604
              ],
              [
                139.6006026107241,
                9.861710292904453
              ],
              [
                139.60052614029138,
                9.861803727081732
              ],
              [
                139.56587796048163,
                9.908625591689509
              ],
              [
                139.56581289927166,
                9.908722945670716
              ],
              [
                139.5658445613206,
                9.908835676648206
              ],
              [
                139.56999857162,
                9.921297707546408
              ],
              [
                139.5700431211607,
                9.921411965951151
              ],
              [
                139.57015081836792,
                9.921470625615703
              ],
              [
                139.58033300307684,
                9.926373158994078
              ],
              [
                139.58076288024583,
                9.926606700201278
              ],
              [
                139.58116787648547,
                9.926881134021666
              ],
              [
                139.5815441145905,
                9.92719383318089
              ],
              [
                139.58188799266998,
                9.92754180407386
              ],
              [
                139.58219621862935,
                9.92792171542384
              ],
              [
                139.58246584168745,
                9.928329930174202
              ],
              [
                139.58269428062547,
                9.928762540307552
              ],
              [
                139.58287934849807,
                9.929215404258885
              ],
              [
                139.58301927356996,
                9.929684186564579
              ],
              [
                139.5831127162776,
                9.930164399367687
              ],
              [
                139.58976692528225,
                9.976300248466359
              ],
              [
                139.5897907407975,
                9.976421563546186
              ],
              [
                139.58989500538615,
                9.9764879971435
              ],
              [
                139.60673820057056,
                9.986057994407364
              ],
              [
                139.607165485889,
                9.98633029679977
              ],
              [
                139.60756301892604,
                9.986644444568652
              ],
              [
                139.60792671747325,
                9.986997211776618
              ],
              [
                139.60825284676352,
                9.987384975908908
              ],
              [
                139.60853805782293,
                9.987803755072472
              ],
              [
                139.60877942186096,
                9.988249248885452
              ],
              [
                139.60897446034565,
                9.988716882637172
              ],
              [
                139.60912117045535,
                9.989201854265165
              ],
              [
                139.60921804564552,
                9.989699183666856
              ],
              [
                139.60926409111897,
                9.990203763839503
              ],
              [
                139.6092588340415,
                9.990710413323258
              ],
              [
                139.60920232839726,
                9.991213929408824
              ],
              [
                139.60909515443444,
                9.991709141563305
              ],
              [
                139.60893841270675,
                9.992190964525662
              ],
              [
                139.60484679373553,
                10.002892121835002
              ],
              [
                139.604630641382,
                10.003378203072367
              ],
              [
                139.6043640691077,
                10.003838568179477
              ],
              [
                139.60405009447683,
                10.004268005882077
              ],
              [
                139.60369227164207,
                10.004661655000184
              ],
              [
                139.60329465111226,
                10.005015059476023
              ],
              [
                139.56261403572287,
                10.037468134674317
              ],
              [
                139.56252467750406,
                10.037547106448423
              ]
            ],
            [
              [
                139.61470057148455,
                10.03426231953159
              ],
              [
                139.614571532551,
                10.03422702426021
              ],
              [
                139.60774700506437,
                10.032751450749588
              ],
              [
                139.60727144057773,
                10.032623820643659
              ],
              [
                139.60681073570544,
                10.032450033286501
              ],
              [
                139.60636935838218,
                10.032231774075028
              ],
              [
                139.60595158910334,
                10.03197115969602
              ],
              [
                139.60556147941253,
                10.031670717598411
              ],
              [
                139.60520281260952,
                10.031333361481979
              ],
              [
                139.60487906705967,
                10.03096236304017
              ],
              [
                139.6045933824606,
                10.030561320231081
              ],
              [
                139.6043485293932,
                10.030134122384318
              ],
              [
                139.60414688245265,
                10.02968491248211
              ],
              [
                139.6039903972192,
                10.029218046980507
              ],
              [
                139.60388059129306,
                10.028738053560279
              ],
              [
                139.60381852957659,
                10.028249587217294
              ],
              [
                139.6038048139469,
                10.027757385118173
              ],
              [
                139.60383957741868,
                10.02726622065905
              ],
              [
                139.60392248285441,
                10.026780857172982
              ],
              [
                139.60405272623373,
                10.026306001734957
              ],
              [
                139.60422904445102,
                10.025846259512482
              ],
              [
                139.604449727565,
                10.025406089104473
              ],
              [
                139.60471263538176,
                10.024989759301596
              ],
              [
                139.60501521821053,
                10.024601307687343
              ],
              [
                139.6053545415906,
                10.024244501481396
              ],
              [
                139.60572731474997,
                10.023922801004963
              ],
              [
                139.63576779718775,
                10.000476570809635
              ],
              [
                139.63585493481037,
                10.000401671164944
              ],
              [
                139.63583441868343,
                10.000288613610408
              ],
              [
                139.6288371282745,
                9.969967021838336
              ],
              [
                139.62880280530837,
                9.969846580964642
              ],
              [
                139.62871421308253,
                9.969758062675448
              ],
              [
                139.6106052274405,
                9.953415807339951
              ],
              [
                139.61027218201943,
                9.953085628722599
              ],
              [
                139.60997153658147,
                9.952725698878773
              ],
              [
                139.60970593605091,
                9.95233918428654
              ],
              [
                139.60947771704494,
                9.951929485302953
              ],
              [
                139.60928888731726,
                9.951500206249445
              ],
              [
                139.60914110809492,
                9.951055123702849
              ],
              [
                139.5952855548976,
                9.90169471543743
              ],
              [
                139.59517724301455,
                9.901221737085447
              ],
              [
                139.59511528694634,
                9.900740487222004
              ],
              [
                139.59510027017038,
                9.900255498065533
              ],
              [
                139.59513233410868,
                9.899771337049636
              ],
              [
                139.59521117679586,
                9.899292563808812
              ],
              [
                139.59533605572312,
                9.898823687237657
              ],
              [
                139.59550579483073,
                9.898369123027893
              ],
              [
                139.5957187955838,
                9.897933152083157
              ],
              [
                139.5959730520265,
                9.897519880203165
              ],
              [
                139.59626616967356,
                9.897133199416935
              ],
              [
                139.59659538806036,
                9.896776751329213
              ],
              [
                139.6209620201785,
                9.872837603985083
              ],
              [
                139.62129897326457,
                9.872535290824759
              ],
              [
                139.62166188823903,
                9.872264692690214
              ],
              [
                139.65033440438404,
                9.852841375301665
              ],
              [
                139.65043045310313,
                9.852769185792495
              ],
              [
                139.6504472815686,
                9.852650217374533
              ],
              [
                139.65527966941917,
                9.799933259004517
              ],
              [
                139.65534626068205,
                9.799458541292099
              ],
              [
                139.65545800624164,
                9.798992382271283
              ],
              [
                139.65561387897162,
                9.79853906671362
              ],
              [
                139.65581244614413,
                9.79810276133801
              ],
              [
                139.65605188259872,
                9.797687476511678
              ],
              [
                139.65632998751886,
                9.797297029388279
              ],
              [
                139.65664420466084,
                9.796935008821936
              ],
              [
                139.65699164585004,
                9.796604742379753
              ],
              [
                139.65736911752788,
                9.79630926575597
              ],
              [
                139.65777315010604,
                9.796051294868919
              ],
              [
                139.6582000298576,
                9.795833200897249
              ],
              [
                139.65864583305242,
                9.795656988484877
              ],
              [
                139.65910646202258,
                9.79552427731499
              ],
              [
                139.66931893790405,
                9.793105533027274
              ],
              [
                139.66981525508112,
                9.793014156816104
              ],
              [
                139.67031825522085,
                9.792973276360033
              ],
              [
                139.67082281415307,
                9.792983308117021
              ],
              [
                139.67132379182794,
                9.79304414989141
              ],
              [
                139.67181608467862,
                9.793155181875017
              ],
              [
                139.67229467761248,
                9.793315272961259
              ],
              [
                139.67275469510082,
                9.793522792267963
              ],
              [
                139.673191450847,
                9.793775625751525
              ],
              [
                139.67360049552676,
                9.79407119774312
              ],
              [
                139.6739776621143,
                9.794406497187591
              ],
              [
                139.67431910833292,
                9.794778108317711
              ],
              [
                139.67462135579686,
                9.79518224545134
              ],
              [
                139.67488132544648,
                9.795614791556979
              ],
              [
                139.67509636891535,
                9.79607134019484
              ],
              [
                139.68387410546305,
                9.817443220484883
              ],
              [
                139.6840508384557,
                9.817949111546813
              ],
              [
                139.68417241562335,
                9.818471011258955
              ],
              [
                139.6842374404805,
                9.819002924865835
              ],
              [
                139.6842451661248,
                9.819538742588247
              ],
              [
                139.6825083519789,
                9.863827503308533
              ],
              [
                139.68246701923115,
                9.864302164277197
              ],
              [
                139.6823806943886,
                9.864770735992911
              ],
              [
                139.68225016132027,
                9.865228963610244
              ],
              [
                139.68207660532616,
                9.865672686212907
              ],
              [
                139.681861602374,
                9.866097874596775
              ],
              [
                139.68160710478895,
                9.866500667856906
              ],
              [
                139.6813154235254,
                9.866877408446323
              ],
              [
                139.68098920718265,
                9.867224675388208
              ],
              [
                139.68063141795423,
                9.867539315339943
              ],
              [
                139.6802453047299,
                9.867818471226895
              ],
              [
                139.6486645760204,
                9.8884336691345
              ],
              [
                139.64856028765723,
                9.888509780218346
              ],
              [
                139.64848447941665,
                9.888614288928117
              ],
              [
                139.63733710653693,
                9.90579982211768
              ],
              [
                139.6372782323045,
                9.905900950661678
              ],
              [
                139.63733774823663,
                9.906001702889796
              ],
              [
                139.6832704564194,
                9.97583816737176
              ],
              [
                139.68335356371375,
                9.975950289813612
              ],
              [
                139.68344869725303,
                9.97605240677674
              ],
              [
                139.75037962874922,
                10.04026992213118
              ],
              [
                139.7507053245513,
                10.040613471332104
              ],
              [
                139.75099707006137,
                10.040986282767399
              ],
              [
                139.75125225002827,
                10.041385014498568
              ],
              [
                139.75146857697987,
                10.041806092233621
              ],
              [
                139.7516441117284,
                10.042245741367589
              ],
              [
                139.75177728075369,
                10.042700020818648
              ],
              [
                139.75186689030824,
                10.043164858356588
              ],
              [
                139.75191213711838,
                10.043636087106897
              ],
              [
                139.7519126155848,
                10.04410948290326
              ],
              [
                139.75186832141847,
                10.044580802153636
              ],
              [
                139.75177965167904,
                10.045045819880452
              ],
              [
                139.75164740121556,
                10.045500367593958
              ],
              [
                139.75147275554133,
                10.045940370659196
              ],
              [
                139.74255936207337,
                10.065624114567612
              ],
              [
                139.7423205351733,
                10.066085983143168
              ],
              [
                139.7420350337783,
                10.066520551691001
              ],
              [
                139.74170594542468,
                10.066923120597895
              ],
              [
                139.74133682901694,
                10.067289336308667
              ],
              [
                139.74093167634038,
                10.0676152384074
              ],
              [
                139.74049486889217,
                10.067897302447104
              ],
              [
                139.740031130498,
                10.068132478064623
              ],
              [
                139.7395454762265,
                10.068318221968577
              ],
              [
                139.7103520472887,
                10.07777524824421
              ],
              [
                139.7098532667343,
                10.0779087992089
              ],
              [
                139.70934337243133,
                10.077990197620343
              ],
              [
                139.7088278022577,
                10.07801857538759
              ],
              [
                139.70831205462295,
                10.077993629869814
              ],
              [
                139.70780162982916,
                10.077915627103879
              ],
              [
                139.70730197141185,
                10.077785398967134
              ],
              [
                139.70681840808615,
                10.077604334305683
              ],
              [
                139.7063560969176,
                10.077374364122724
              ],
              [
                139.6825226839422,
                10.063940985900238
              ],
              [
                139.68240542043543,
                10.063882853910348
              ],
              [
                139.68227462373085,
                10.06387813370518
              ],
              [
                139.65638642673824,
                10.064316916705053
              ],
              [
                139.6559137294825,
                10.064302560430939
              ],
              [
                139.65544450293106,
                10.064243609251186
              ],
              [
                139.65498294476205,
                10.064140590540212
              ],
              [
                139.6545331840527,
                10.063994425898457
              ],
              [
                139.65409924434067,
                10.063806422907778
              ],
              [
                139.65368500762975,
                10.06357826343389
              ],
              [
                139.65329417966169,
                10.063311988580482
              ],
              [
                139.6148116350872,
                10.034336896194972
              ],
              [
                139.61470057148455,
                10.03426231953159
              ]
            ]
          ],
          [
            [
              [
                137.32548487849579,
                8.425359067148985
              ],
              [
                137.32552293956942,
                8.425466681608722
              ],
              [
                137.35787177901776,
                8.504697897069068
              ],
              [
                137.35792281037087,
                8.50480693050201
              ],
              [
                137.3580414571676,
                8.504786548498798
              ],
              [
                137.41769847661615,
                8.491430499368525
              ],
              [
                137.4181775601061,
                8.491347468622532
              ],
              [
                137.41866244312533,
                8.491311363875173
              ],
              [
                137.41914854032723,
                8.491322526554741
              ],
              [
                137.41963125488317,
                8.491380851100201
              ],
              [
                137.42010602195282,
                8.49148578595943
              ],
              [
                137.42056835185213,
                8.49163633880504
              ],
              [
                137.4210138725104,
                8.491831085918422
              ],
              [
                137.42143837081528,
                8.49206818565328
              ],
              [
                137.4218378324545,
                8.492345395851357
              ],
              [
                137.42220847987755,
                8.492660095045643
              ],
              [
                137.42254680801867,
                8.493009307250539
              ],
              [
                137.42284961744264,
                8.493389730104573
              ],
              [
                137.46787109877508,
                8.555969589156687
              ],
              [
                137.46794070118472,
                8.556057615097023
              ],
              [
                137.46804185913535,
                8.556106196273381
              ],
              [
                137.4892964962784,
                8.565150722717227
              ],
              [
                137.48977279060762,
                8.565383967703546
              ],
              [
                137.49022170072158,
                8.565666349043731
              ],
              [
                137.49063817621067,
                8.565994689840267
              ],
              [
                137.54401292212114,
                8.612871640596431
              ],
              [
                137.5441048215136,
                8.61294478743426
              ],
              [
                137.5442133337504,
                8.612899831314829
              ],
              [
                137.59477194921197,
                8.589024929569097
              ],
              [
                137.5948753591071,
                8.5889698195283
              ],
              [
                137.59486576815277,
                8.588853034527212
              ],
              [
                137.5911275510185,
                8.56034912887834
              ],
              [
                137.5911103711765,
                8.5602376897009
              ],
              [
                137.57421607215488,
                8.464972614662228
              ],
              [
                137.57418850401234,
                8.464852330482247
              ],
              [
                137.57412675822144,
                8.46474548599867
              ],
              [
                137.54980162594566,
                8.427110375685178
              ],
              [
                137.54956148177797,
                8.426696679618043
              ],
              [
                137.54936196913454,
                8.426261928698143
              ],
              [
                137.5492049140641,
                8.425810102003394
              ],
              [
                137.54909175402042,
                8.425345334898536
              ],
              [
                137.53566727204293,
                8.355908359152865
              ],
              [
                137.5356336783937,
                8.355774829801096
              ],
              [
                137.53557151327692,
                8.35565197167488
              ],
              [
                137.52414863619208,
                8.335881607489547
              ],
              [
                137.5239311108575,
                8.33546015909172
              ],
              [
                137.5237544955435,
                8.335019996560286
              ],
              [
                137.52362037933594,
                8.334565080231616
              ],
              [
                137.52352996893748,
                8.334099503188508
              ],
              [
                137.52348407781037,
                8.333627454432902
              ],
              [
                137.52348311885726,
                8.333153181195593
              ],
              [
                137.524116267638,
                8.319223908018744
              ],
              [
                137.52411572281198,
                8.319100981418627
              ],
              [
                137.52405646623393,
                8.318993278569256
              ],
              [
                137.51055506594338,
                8.297111698788008
              ],
              [
                137.5104826969642,
                8.297006940002207
              ],
              [
                137.5103680099506,
                8.296951635741564
              ],
              [
                137.48709314120222,
                8.287176190867234
              ],
              [
                137.48698221141245,
                8.287135933818945
              ],
              [
                137.4869326047977,
                8.28724300964246
              ],
              [
                137.45778720676623,
                8.359303285090297
              ],
              [
                137.45758339563983,
                8.359744256037759
              ],
              [
                137.4573377529879,
                8.36016336704848
              ],
              [
                137.4570525976216,
                8.360556661809209
              ],
              [
                137.45673062134316,
                8.360920427706258
              ],
              [
                137.45637486353587,
                8.361251230871746
              ],
              [
                137.45598868247305,
                8.361545948598529
              ],
              [
                137.45557572361673,
                8.361801798817853
              ],
              [
                137.41826052470716,
                8.382482511466531
              ],
              [
                137.41793353693186,
                8.382648364308265
              ],
              [
                137.32558610473475,
                8.425306315221647
              ],
              [
                137.32548487849579,
                8.425359067148985
              ]
            ],
            [
              [
                137.43455301810116,
                8.477551040793497
              ],
              [
                137.43442795109996,
                8.477552440755778
              ],
              [
                137.39707090910048,
                8.479887255880746
              ],
              [
                137.39681602565096,
                8.479916383284111
              ],
              [
                137.37260917651048,
                8.483950858140858
              ],
              [
                137.3721368444843,
                8.484006647121422
              ],
              [
                137.3716613485689,
                8.484017304876387
              ],
              [
                137.37118699124062,
                8.483982734970144
              ],
              [
                137.37071806467344,
                8.48390325020497
              ],
              [
                137.3702588119016,
                8.483779569790661
              ],
              [
                137.36981338842708,
                8.48361281283685
              ],
              [
                137.36938582461877,
                8.483404488226844
              ],
              [
                137.36897998924425,
                8.483156480964658
              ],
              [
                137.36859955446357,
                8.48287103511874
              ],
              [
                137.36824796260206,
                8.482550733516746
              ],
              [
                137.3679283950029,
                8.482198474375094
              ],
              [
                137.36764374324096,
                8.481817445074746
              ],
              [
                137.36739658295866,
                8.48141109332051
              ],
              [
                137.3671891505607,
                8.480983095944836
              ],
              [
                137.34992524433144,
                8.440569860908134
              ],
              [
                137.34975901866744,
                8.440122841117823
              ],
              [
                137.34963613967128,
                8.439662017489297
              ],
              [
                137.3495577253337,
                8.439191582737207
              ],
              [
                137.3495244890925,
                8.438715817021151
              ],
              [
                137.34953673334104,
                8.438239049003469
              ],
              [
                137.3495943466775,
                8.437765616465752
              ],
              [
                137.34969680491804,
                8.437299826842368
              ],
              [
                137.34984317586617,
                8.436845918030109
              ],
              [
                137.35003212779415,
                8.436408019830504
              ],
              [
                137.3502619415594,
                8.43599011637562
              ],
              [
                137.35053052624588,
                8.43559600987921
              ],
              [
                137.3508354381877,
                8.435229286042999
              ],
              [
                137.35117390320252,
                8.434893281432874
              ],
              [
                137.35154284183196,
                8.43459105312179
              ],
              [
                137.35193889735922,
                8.434325350875577
              ],
              [
                137.35235846634967,
                8.434098592134722
              ],
              [
                137.46735494047326,
                8.378864065193483
              ],
              [
                137.4674625931843,
                8.378805589878628
              ],
              [
                137.46751866079867,
                8.378696663796479
              ],
              [
                137.49347731621336,
                8.321422805024353
              ],
              [
                137.49370647099252,
                8.320977882653724
              ],
              [
                137.4939789558943,
                8.320558097224032
              ],
              [
                137.4942920409707,
                8.320167654445077
              ],
              [
                137.4946425895121,
                8.319810466051065
              ],
              [
                137.4950270894732,
                8.319490110610051
              ],
              [
                137.49544168865927,
                8.319209797671308
              ],
              [
                137.49588223331992,
                8.31897233560976
              ],
              [
                137.49634430976457,
                8.318780103489681
              ],
              [
                137.49682328858188,
                8.318635027229545
              ],
              [
                137.49731437102048,
                8.318538560306786
              ],
              [
                137.4978126370663,
                8.31849166919583
              ],
              [
                137.49831309473473,
                8.318494823685265
              ],
              [
                137.49881073008396,
                8.31854799217117
              ],
              [
                137.49930055744815,
                8.318650641973734
              ],
              [
                137.4997776693875,
                8.318801744674031
              ],
              [
                137.5002372858543,
                8.318999786417452
              ],
              [
                137.50067480208304,
                8.319242783080577
              ],
              [
                137.5010858347241,
                8.319528300149543
              ],
              [
                137.50146626575938,
                8.319853477110737
              ],
              [
                137.50181228375945,
                8.320215056109461
              ],
              [
                137.50212042206923,
                8.320609414589454
              ],
              [
                137.505472010381,
                8.325372197979853
              ],
              [
                137.50572454002716,
                8.325769575973053
              ],
              [
                137.50593857209162,
                8.326188945460549
              ],
              [
                137.5061122087051,
                8.32662658780097
              ],
              [
                137.5062439101936,
                8.327078622323542
              ],
              [
                137.53091147775726,
                8.429472299002835
              ],
              [
                137.53094456255548,
                8.429585683966616
              ],
              [
                137.5309984678323,
                8.429690779042579
              ],
              [
                137.55580355188965,
                8.472869999438691
              ],
              [
                137.55603826358546,
                8.47333259024472
              ],
              [
                137.55622378491083,
                8.473817009145886
              ],
              [
                137.55635811906384,
                8.47431804224789
              ],
              [
                137.55643982018006,
                8.474830296834575
              ],
              [
                137.56241889615947,
                8.53088413414187
              ],
              [
                137.56244689863613,
                8.53136956845611
              ],
              [
                137.56242761689617,
                8.531855427310763
              ],
              [
                137.56236123329134,
                8.532337115829572
              ],
              [
                137.56224837562633,
                8.532810078576082
              ],
              [
                137.56209011122138,
                8.533269842635427
              ],
              [
                137.5618879368185,
                8.533712059915686
              ],
              [
                137.56164376442638,
                8.534132548268769
              ],
              [
                137.5613599032382,
                8.534527331041927
              ],
              [
                137.5610390377929,
                8.534892674685851
              ],
              [
                137.56068420258705,
                8.535225124063686
              ],
              [
                137.56029875337683,
                8.535521535127037
              ],
              [
                137.55988633544194,
                8.535779104649936
              ],
              [
                137.55945084911139,
                8.535995396739585
              ],
              [
                137.55899641287715,
                8.536168365873138
              ],
              [
                137.55852732444475,
                8.536296376242671
              ],
              [
                137.55804802008873,
                8.53637821722538
              ],
              [
                137.55756303269803,
                8.536413114832722
              ],
              [
                137.55707694890725,
                8.536400739030189
              ],
              [
                137.55659436571995,
                8.536341206858523
              ],
              [
                137.5561198470336,
                8.536235081326838
              ],
              [
                137.55565788047804,
                8.53608336608811
              ],
              [
                137.5552128349746,
                8.535887495947408
              ],
              [
                137.55478891941857,
                8.535649323292624
              ],
              [
                137.5543901428745,
                8.53537110057602
              ],
              [
                137.55402027666167,
                8.535055459012286
              ],
              [
                137.54795371468322,
                8.529345753620778
              ],
              [
                137.54786536289237,
                8.52927035140253
              ],
              [
                137.54778054621613,
                8.529349709230498
              ],
              [
                137.53290296909816,
                8.544692210633421
              ],
              [
                137.53282663883286,
                8.544778832840027
              ],
              [
                137.53287395729316,
                8.544884145134247
              ],
              [
                137.5413300197367,
                8.561532018069949
              ],
              [
                137.54153195889515,
                8.561983625915632
              ],
              [
                137.54168828218488,
                8.562452978767
              ],
              [
                137.54179745933175,
                8.562935482052591
              ],
              [
                137.54185842158284,
                8.563426412469187
              ],
              [
                137.54187057216882,
                8.563920964219017
              ],
              [
                137.54183379214558,
                8.56441429605449
              ],
              [
                137.54174844155878,
                8.564901578669954
              ],
              [
                137.54161535591922,
                8.565378041976555
              ],
              [
                137.54143583802386,
                8.565839021797418
              ],
              [
                137.5412116452026,
                8.566280005526028
              ],
              [
                137.54094497211548,
                8.566696676300875
              ],
              [
                137.5406384292688,
                8.567084955263908
              ],
              [
                137.54029501746032,
                8.567441041489149
              ],
              [
                137.5399180984042,
                8.567761449190565
              ],
              [
                137.5395113618224,
                8.568043041845005
              ],
              [
                137.53907878932557,
                8.568283062896136
              ],
              [
                137.53862461543628,
                8.568479162738805
              ],
              [
                137.5381532861367,
                8.568629421719734
              ],
              [
                137.53766941534604,
                8.568732368929293
              ],
              [
                137.53717773975427,
                8.56878699660049
              ],
              [
                137.53668307245383,
                8.568792769974156
              ],
              [
                137.53619025582339,
                8.568749632533798
              ],
              [
                137.5357041141252,
                8.568658006558842
              ],
              [
                137.53522940627948,
                8.568518788990872
              ],
              [
                137.53477077927866,
                8.568333342653323
              ],
              [
                137.5040935694229,
                8.55412495072014
              ],
              [
                137.5036628931194,
                8.553899433730312
              ],
              [
                137.50325615354217,
                8.55363315773176
              ],
              [
                137.50287719584432,
                8.553328639991173
              ],
              [
                137.5025296025402,
                8.55298875929736
              ],
              [
                137.46094757520038,
                8.508172574275553
              ],
              [
                137.46082484474834,
                8.508035313527149
              ],
              [
                137.4346394003881,
                8.477641494180464
              ],
              [
                137.43455301810116,
                8.477551040793497
              ]
            ]
          ]
        ]
      },
      "properties": {
        "title": "ulit1238: Ulithian",
        "fill": "#ff0000",
        "family": "Austronesian",
        "cldf:languageReference": "ulit1238",
        "fill-opacity": 0.3,
        "stroke": "#F2F3F4"
      }
    },
    {
      "type": "Feature",
      "geometry": {
        "type": "Point",
        "coordinates": [
          139.603611,
          9.961388
        ]
      },
      "properties": {
        "title": "ulit1238 -> ulit1238: Ulithian",
        "marker-color": "#F2F3F4"
      }
    }
  ],
  "properties": {}
}
